OBJECT_NAME,OBJECT_ID,EPOCH,MEAN_MOTION,ECCENTRICITY,INCLINATION,RA_OF_ASC_NODE,ARG_OF_PERICENTER,MEAN_ANOMALY,EPHEMERIS_TYPE,CLASSIFICATION_TYPE,NORAD_CAT_ID,ELEMENT_SET_NO,REV_AT_EPOCH,BSTAR,MEAN_MOTION_DOT,MEAN_MOTION_DDOT
GSAT0225 (GALILEO 29),2024-079A,2026-07-22T07:17:48.012288,1.70474061,.00003069,55.1403,100.0982,338.5943,199.0835,0,U,59598,999,1391,0,-.49E-6,0
GSAT0227 (GALILEO 30),2024-079C,2026-07-18T02:12:23.834592,1.70473877,.00029504,55.1327,100.2145,69.2435,290.8270,0,U,59600,999,1389,0,-.31E-6,0
GSAT0232 (GALILEO 32),2024-167A,2026-07-21T08:48:43.552800,1.70474219,.00063797,55.1779,220.3751,233.5892,192.1922,0,U,61182,999,1146,0,.65E-6,0
GSAT0226 (GALILEO 31),2024-167B,2026-07-21T23:51:26.549856,1.70474215,.00031803,55.1766,220.3651,239.5530,302.2968,0,U,61183,999,1144,0,.69E-6,0
BEIDOU-3 M25 (C47),2024-168B,2026-07-22T21:25:14.378592,1.86230334,.00035247,54.4389,301.0005,291.1800,65.3685,0,U,61186,999,1244,0,-.97E-6,0
BEIDOU-3 M27 (C49),2024-168C,2026-07-19T10:07:53.508576,1.86230211,.00008576,54.4377,301.1038,40.8164,284.0569,0,U,61187,999,985,0,-.96E-6,0
GPS BIII-7  (PRN 01),2024-242A,2026-07-19T17:19:15.611808,2.00572353,.00179964,54.8338,332.8621,4.3540,337.1791,0,U,62339,999,1190,0,-.109E-5,0
QZS-6 (QZSS/PRN 200),2025-023A,2026-07-22T21:55:29.651232,1.00273907,.00020626,0.0181,52.9322,62.4265,244.6632,0,U,62876,999,530,0,-.229E-5,0
COSMOS 2584 (704K),2025-042A,2026-07-21T20:46:04.787616,2.13103874,.00055922,65.1046,71.6233,211.4404,148.5924,0,U,63130,999,1078,0,-.53E-6,0
GPS BIII-8  (PRN 21),2025-116A,2026-07-21T05:52:26.666112,2.00573612,.00084109,55.2580,29.7605,339.2727,205.1759,0,U,64202,999,855,0,-.88E-6,0
COSMOS 2596 (708K),2025-206B,2026-07-21T17:05:13.845120,2.13101030,.00112411,64.6120,313.7831,307.0070,51.3277,0,U,65590,999,664,0,-.9E-6,0
GSAT0233 (GALILEO 33),2025-302A,2026-07-21T20:08:24.676800,1.70474120,.00011835,54.3554,101.1433,153.0567,30.2541,0,U,67160,999,371,0,-.48E-6,0
GSAT0234 (GALILEO 34),2025-302C,2026-07-22T03:02:25.577088,1.70474069,.00015898,54.3576,101.1340,326.2968,213.5665,0,U,67162,999,377,0,-.48E-6,0
GPS BIII-9  (PRN 20),2026-017A,2026-07-20T02:27:29.246112,2.00570435,.00213058,55.1095,87.4339,260.2926,99.5185,0,U,67588,999,43227,0,-.54E-6,0
GPS BIII-10 (PRN 13),2026-087A,2026-07-22T07:34:38.593344,2.00573383,.00205169,54.9613,206.3984,105.9456,257.8163,0,U,68791,999,154,0,.86E-6,0
